ORBCOMM FM24            
1 25478U 98053D   24315.19566581  .00005904  00000+0  20214-2 0  9995
2 25478  45.0069 226.5925 0000886 238.6896 121.3866 14.36946106366212
ORBCOMM FM25            
1 25479U 98053E   24315.16409089  .00007682  00000+0  26152-2 0  9994
2 25479  45.0062 224.9957 0003349 236.9710 123.0816 14.36941598366221
ORBCOMM FM26            
1 25480U 98053F   24315.46091873  .00004878  00000+0  17046-2 0  9993
2 25480  45.0057 218.6023 0005593 257.4244 102.5978 14.36174750366290
ORBCOMM FM27            
1 25481U 98053G   24314.87551837  .00007655  00000+0  26073-2 0  9995
2 25481  45.0040 226.6157 0000932 357.8920   2.1924 14.36929457366117
ORBCOMM FM28            
1 25482U 98053H   24315.08998139  .00005825  00000+0  19833-2 0  9993
2 25482  45.0040 163.5158 0003558 275.4000  84.6442 14.37241796366999
ORBCOMM FM30            
1 25980U 99065A   24314.70959574  .00007487  00000+0  25819-2 0  9995
2 25980  45.0318  47.8579 0005889 329.9505  30.1005 14.36320743302883
ORBCOMM FM31            
1 25981U 99065B   24315.51154524  .00005285  00000+0  18383-2 0  9990
2 25981  45.0233  37.6472 0002619 344.8030  15.2739 14.36300923303524
ORBCOMM FM32            
1 25982U 99065C   24315.41123757  .00005545  00000+0  19644-2 0  9994
2 25982  45.0153  53.2138 0004306   0.7816 359.3038 14.35318083303286
