<?xml version="1.0" encoding="UTF-8"?>
<ndm xmlns:xsi="http://www.w3.org/2001/XMLSchema-instance" xsi:noNamespaceSchemaLocation="https://sanaregistry.org/r/ndmxml_unqualified/ndmxml-2.0.0-master-2.0.xsd">
<omm id="CCSDS_OMM_VERS" version="2.0">
<header><CREATION_DATE/><ORIGINATOR/></header><body><segment><metadata><OBJECT_NAME>ORBCOMM FM24</OBJECT_NAME><OBJECT_ID>1998-053D</OBJECT_ID><CENTER_NAME>EARTH</CENTER_NAME><REF_FRAME>TEME</REF_FRAME><TIME_SYSTEM>UTC</TIME_SYSTEM><MEAN_ELEMENT_THEORY>SGP4</MEAN_ELEMENT_THEORY></metadata><data><meanElements><EPOCH>2024-11-10T04:41:45.525984</EPOCH><MEAN_MOTION>14.36946106</MEAN_MOTION><ECCENTRICITY>.0000886</ECCENTRICITY><INCLINATION>45.0069</INCLINATION><RA_OF_ASC_NODE>226.5925</RA_OF_ASC_NODE><ARG_OF_PERICENTER>238.6896</ARG_OF_PERICENTER><MEAN_ANOMALY>121.3866</MEAN_ANOMALY></meanElements><tleParameters><EPHEMERIS_TYPE>0</EPHEMERIS_TYPE><CLASSIFICATION_TYPE>U</CLASSIFICATION_TYPE><NORAD_CAT_ID>25478</NORAD_CAT_ID><ELEMENT_SET_NO>999</ELEMENT_SET_NO><REV_AT_EPOCH>36621</REV_AT_EPOCH><BSTAR>.20214E-2</BSTAR><MEAN_MOTION_DOT>.5904E-4</MEAN_MOTION_DOT><MEAN_MOTION_DDOT>0</MEAN_MOTION_DDOT></tleParameters></data></segment></body></omm>
<omm id="CCSDS_OMM_VERS" version="2.0">
<header><CREATION_DATE/><ORIGINATOR/></header><body><segment><metadata><OBJECT_NAME>ORBCOMM FM25</OBJECT_NAME><OBJECT_ID>1998-053E</OBJECT_ID><CENTER_NAME>EARTH</CENTER_NAME><REF_FRAME>TEME</REF_FRAME><TIME_SYSTEM>UTC</TIME_SYSTEM><MEAN_ELEMENT_THEORY>SGP4</MEAN_ELEMENT_THEORY></metadata><data><meanElements><EPOCH>2024-11-10T03:56:17.452896</EPOCH><MEAN_MOTION>14.36941598</MEAN_MOTION><ECCENTRICITY>.0003349</ECCENTRICITY><INCLINATION>45.0062</INCLINATION><RA_OF_ASC_NODE>224.9957</RA_OF_ASC_NODE><ARG_OF_PERICENTER>236.9710</ARG_OF_PERICENTER><MEAN_ANOMALY>123.0816</MEAN_ANOMALY></meanElements><tleParameters><EPHEMERIS_TYPE>0</EPHEMERIS_TYPE><CLASSIFICATION_TYPE>U</CLASSIFICATION_TYPE><NORAD_CAT_ID>25479</NORAD_CAT_ID><ELEMENT_SET_NO>999</ELEMENT_SET_NO><REV_AT_EPOCH>36622</REV_AT_EPOCH><BSTAR>.26152E-2</BSTAR><MEAN_MOTION_DOT>.7682E-4</MEAN_MOTION_DOT><MEAN_MOTION_DDOT>0</MEAN_MOTION_DDOT></tleParameters></data></segment></body></omm>
<omm id="CCSDS_OMM_VERS" version="2.0">
<header><CREATION_DATE/><ORIGINATOR/></header><body><segment><metadata><OBJECT_NAME>ORBCOMM FM26</OBJECT_NAME><OBJECT_ID>1998-053F</OBJECT_ID><CENTER_NAME>EARTH</CENTER_NAME><REF_FRAME>TEME</REF_FRAME><TIME_SYSTEM>UTC</TIME_SYSTEM><MEAN_ELEMENT_THEORY>SGP4</MEAN_ELEMENT_THEORY></metadata><data><meanElements><EPOCH>2024-11-10T11:03:43.378272</EPOCH><MEAN_MOTION>14.36174750</MEAN_MOTION><ECCENTRICITY>.0005593</ECCENTRICITY><INCLINATION>45.0057</INCLINATION><RA_OF_ASC_NODE>218.6023</RA_OF_ASC_NODE><ARG_OF_PERICENTER>257.4244</ARG_OF_PERICENTER><MEAN_ANOMALY>102.5978</MEAN_ANOMALY></meanElements><tleParameters><EPHEMERIS_TYPE>0</EPHEMERIS_TYPE><CLASSIFICATION_TYPE>U</CLASSIFICATION_TYPE><NORAD_CAT_ID>25480</NORAD_CAT_ID><ELEMENT_SET_NO>999</ELEMENT_SET_NO><REV_AT_EPOCH>36629</REV_AT_EPOCH><BSTAR>.17046E-2</BSTAR><MEAN_MOTION_DOT>.4878E-4</MEAN_MOTION_DOT><MEAN_MOTION_DDOT>0</MEAN_MOTION_DDOT></tleParameters></data></segment></body></omm>
<omm id="CCSDS_OMM_VERS" version="2.0">
<header><CREATION_DATE/><ORIGINATOR/></header><body><segment><metadata><OBJECT_NAME>ORBCOMM FM27</OBJECT_NAME><OBJECT_ID>1998-053G</OBJECT_ID><CENTER_NAME>EARTH</CENTER_NAME><REF_FRAME>TEME</REF_FRAME><TIME_SYSTEM>UTC</TIME_SYSTEM><MEAN_ELEMENT_THEORY>SGP4</MEAN_ELEMENT_THEORY></metadata><data><meanElements><EPOCH>2024-11-09T21:00:44.787168</EPOCH><MEAN_MOTION>14.36929457</MEAN_MOTION><ECCENTRICITY>.0000932</ECCENTRICITY><INCLINATION>45.0040</INCLINATION><RA_OF_ASC_NODE>226.6157</RA_OF_ASC_NODE><ARG_OF_PERICENTER>357.8920</ARG_OF_PERICENTER><MEAN_ANOMALY>2.1924</MEAN_ANOMALY></meanElements><tleParameters><EPHEMERIS_TYPE>0</EPHEMERIS_TYPE><CLASSIFICATION_TYPE>U</CLASSIFICATION_TYPE><NORAD_CAT_ID>25481</NORAD_CAT_ID><ELEMENT_SET_NO>999</ELEMENT_SET_NO><REV_AT_EPOCH>36611</REV_AT_EPOCH><BSTAR>.26073E-2</BSTAR><MEAN_MOTION_DOT>.7655E-4</MEAN_MOTION_DOT><MEAN_MOTION_DDOT>0</MEAN_MOTION_DDOT></tleParameters></data></segment></body></omm>
<omm id="CCSDS_OMM_VERS" version="2.0">
<header><CREATION_DATE/><ORIGINATOR/></header><body><segment><metadata><OBJECT_NAME>ORBCOMM FM28</OBJECT_NAME><OBJECT_ID>1998-053H</OBJECT_ID><CENTER_NAME>EARTH</CENTER_NAME><REF_FRAME>TEME</REF_FRAME><TIME_SYSTEM>UTC</TIME_SYSTEM><MEAN_ELEMENT_THEORY>SGP4</MEAN_ELEMENT_THEORY></metadata><data><meanElements><EPOCH>2024-11-10T02:09:34.392096</EPOCH><MEAN_MOTION>14.37241796</MEAN_MOTION><ECCENTRICITY>.0003558</ECCENTRICITY><INCLINATION>45.0040</INCLINATION><RA_OF_ASC_NODE>163.5158</RA_OF_ASC_NODE><ARG_OF_PERICENTER>275.4000</ARG_OF_PERICENTER><MEAN_ANOMALY>84.6442</MEAN_ANOMALY></meanElements><tleParameters><EPHEMERIS_TYPE>0</EPHEMERIS_TYPE><CLASSIFICATION_TYPE>U</CLASSIFICATION_TYPE><NORAD_CAT_ID>25482</NORAD_CAT_ID><ELEMENT_SET_NO>999</ELEMENT_SET_NO><REV_AT_EPOCH>36699</REV_AT_EPOCH><BSTAR>.19833E-2</BSTAR><MEAN_MOTION_DOT>.5825E-4</MEAN_MOTION_DOT><MEAN_MOTION_DDOT>0</MEAN_MOTION_DDOT></tleParameters></data></segment></body></omm>
<omm id="CCSDS_OMM_VERS" version="2.0">
<header><CREATION_DATE/><ORIGINATOR/></header><body><segment><metadata><OBJECT_NAME>ORBCOMM FM30</OBJECT_NAME><OBJECT_ID>1999-065A</OBJECT_ID><CENTER_NAME>EARTH</CENTER_NAME><REF_FRAME>TEME</REF_FRAME><TIME_SYSTEM>UTC</TIME_SYSTEM><MEAN_ELEMENT_THEORY>SGP4</MEAN_ELEMENT_THEORY></metadata><data><meanElements><EPOCH>2024-11-09T17:01:49.071936</EPOCH><MEAN_MOTION>14.36320743</MEAN_MOTION><ECCENTRICITY>.0005889</ECCENTRICITY><INCLINATION>45.0318</INCLINATION><RA_OF_ASC_NODE>47.8579</RA_OF_ASC_NODE><ARG_OF_PERICENTER>329.9505</ARG_OF_PERICENTER><MEAN_ANOMALY>30.1005</MEAN_ANOMALY></meanElements><tleParameters><EPHEMERIS_TYPE>0</EPHEMERIS_TYPE><CLASSIFICATION_TYPE>U</CLASSIFICATION_TYPE><NORAD_CAT_ID>25980</NORAD_CAT_ID><ELEMENT_SET_NO>999</ELEMENT_SET_NO><REV_AT_EPOCH>30288</REV_AT_EPOCH><BSTAR>.25819E-2</BSTAR><MEAN_MOTION_DOT>.7487E-4</MEAN_MOTION_DOT><MEAN_MOTION_DDOT>0</MEAN_MOTION_DDOT></tleParameters></data></segment></body></omm>
<omm id="CCSDS_OMM_VERS" version="2.0">
<header><CREATION_DATE/><ORIGINATOR/></header><body><segment><metadata><OBJECT_NAME>ORBCOMM FM31</OBJECT_NAME><OBJECT_ID>1999-065B</OBJECT_ID><CENTER_NAME>EARTH</CENTER_NAME><REF_FRAME>TEME</REF_FRAME><TIME_SYSTEM>UTC</TIME_SYSTEM><MEAN_ELEMENT_THEORY>SGP4</MEAN_ELEMENT_THEORY></metadata><data><meanElements><EPOCH>2024-11-10T12:16:37.508736</EPOCH><MEAN_MOTION>14.36300923</MEAN_MOTION><ECCENTRICITY>.0002619</ECCENTRICITY><INCLINATION>45.0233</INCLINATION><RA_OF_ASC_NODE>37.6472</RA_OF_ASC_NODE><ARG_OF_PERICENTER>344.8030</ARG_OF_PERICENTER><MEAN_ANOMALY>15.2739</MEAN_ANOMALY></meanElements><tleParameters><EPHEMERIS_TYPE>0</EPHEMERIS_TYPE><CLASSIFICATION_TYPE>U</CLASSIFICATION_TYPE><NORAD_CAT_ID>25981</NORAD_CAT_ID><ELEMENT_SET_NO>999</ELEMENT_SET_NO><REV_AT_EPOCH>30352</REV_AT_EPOCH><BSTAR>.18383E-2</BSTAR><MEAN_MOTION_DOT>.5285E-4</MEAN_MOTION_DOT><MEAN_MOTION_DDOT>0</MEAN_MOTION_DDOT></tleParameters></data></segment></body></omm>
<omm id="CCSDS_OMM_VERS" version="2.0">
<header><CREATION_DATE/><ORIGINATOR/></header><body><segment><metadata><OBJECT_NAME>ORBCOMM FM32</OBJECT_NAME><OBJECT_ID>1999-065C</OBJECT_ID><CENTER_NAME>EARTH</CENTER_NAME><REF_FRAME>TEME</REF_FRAME><TIME_SYSTEM>UTC</TIME_SYSTEM><MEAN_ELEMENT_THEORY>SGP4</MEAN_ELEMENT_THEORY></metadata><data><meanElements><EPOCH>2024-11-10T09:52:10.926048</EPOCH><MEAN_MOTION>14.35318083</MEAN_MOTION><ECCENTRICITY>.0004306</ECCENTRICITY><INCLINATION>45.0153</INCLINATION><RA_OF_ASC_NODE>53.2138</RA_OF_ASC_NODE><ARG_OF_PERICENTER>0.7816</ARG_OF_PERICENTER><MEAN_ANOMALY>359.3038</MEAN_ANOMALY></meanElements><tleParameters><EPHEMERIS_TYPE>0</EPHEMERIS_TYPE><CLASSIFICATION_TYPE>U</CLASSIFICATION_TYPE><NORAD_CAT_ID>25982</NORAD_CAT_ID><ELEMENT_SET_NO>999</ELEMENT_SET_NO><REV_AT_EPOCH>30328</REV_AT_EPOCH><BSTAR>.19644E-2</BSTAR><MEAN_MOTION_DOT>.5545E-4</MEAN_MOTION_DOT><MEAN_MOTION_DDOT>0</MEAN_MOTION_DDOT></tleParameters></data></segment></body></omm>

</ndm>
